{"type": "FeatureCollection", "features": [ {"type": "Feature", "properties": {"norad_id": 66866, "name": "STARLINK-36126", "group": "last-30-days", "lat": 42.77884929375065, "lon": -170.68461582944957, "alt_km": 333.50166546794753, "timestamp": "2025-12-17T13:48:36.280925+00:00", "meta": {"OBJECT_NAME": "STARLINK-36126", "OBJECT_ID": "2025-281U", "EPOCH": "2025-12-17T06:00:00.999648", "MEAN_MOTION": 15.7800637, "ECCENTRICITY": 0.0001449, "INCLINATION": 43.0006, "RA_OF_ASC_NODE": 94.5112, "ARG_OF_PERICENTER": 269.5389, "MEAN_ANOMALY": 135.2323, "EPHEMERIS_TYPE": 0, "CLASSIFICATION_TYPE": "U", "NORAD_CAT_ID": 66866, "ELEMENT_SET_NO": 999, "REV_AT_EPOCH": 215, "BSTAR": -0.0099844801, "MEAN_MOTION_DOT": -0.01535308, "MEAN_MOTION_DDOT": 0}, "tle": {"line1": "1 66866U 25281U   25351.25001157 -.01535308  00000+0 -99845-2 0  9990", "line2": "2 66866  43.0006  94.5112 0001449 269.5389 135.2323 15.78006370  2153"}}, "geometry": {"type": "Point", "coordinates": [-170.68461582944957, 42.77884929375065]}}, {"type": "Feature", "properties": {"norad_id": 66867, "name": "STARLINK-36101", "group": "last-30-days", "lat": 42.558841889330374, "lon": -167.66198322269236, "alt_km": 334.0639263709172, "timestamp": "2025-12-17T13:48:36.280934+00:00", "meta": {"OBJECT_NAME": "STARLINK-36101", "OBJECT_ID": "2025-281V", "EPOCH": "2025-12-17T06:00:00.999648", "MEAN_MOTION": 15.77857269, "ECCENTRICITY": 0.00015577, "INCLINATION": 43.0008, "RA_OF_ASC_NODE": 94.5051, "ARG_OF_PERICENTER": 269.2609, "MEAN_ANOMALY": 137.9279, "EPHEMERIS_TYPE": 0, "CLASSIFICATION_TYPE": "U", "NORAD_CAT_ID": 66867, "ELEMENT_SET_NO": 999, "REV_AT_EPOCH": 196, "BSTAR": -0.010163387, "MEAN_MOTION_DOT": -0.01550205, "MEAN_MOTION_DDOT": 0}, "tle": {"line1": "1 66867U 25281V   25351.25001157 -.01550205  00000+0 -10163-1 0  9999", "line2": "2 66867  43.0008  94.5051 0001557 269.2609 137.9279 15.77857269  1967"}}, "geometry": {"type": "Point", "coordinates": [-167.66198322269236, 42.558841889330374]}}, {"type": "Feature", "properties": {"norad_id": 66868, "name": "STARLINK-36108", "group": "last-30-days", "lat": 42.25854051241069, "lon": -164.65548082361755, "alt_km": 334.6729341092778, "timestamp": "2025-12-17T13:48:36.280946+00:00", "meta": {"OBJECT_NAME": "STARLINK-36108", "OBJECT_ID": "2025-281W", "EPOCH": "2025-12-17T06:00:00.999648", "MEAN_MOTION": 15.77680941, "ECCENTRICITY": 0.0001623, "INCLINATION": 43.0009, "RA_OF_ASC_NODE": 94.4983, "ARG_OF_PERICENTER": 267.199, "MEAN_ANOMALY": 142.4465, "EPHEMERIS_TYPE": 0, "CLASSIFICATION_TYPE": "U", "NORAD_CAT_ID": 66868, "ELEMENT_SET_NO": 999, "REV_AT_EPOCH": 196, "BSTAR": -0.010342608, "MEAN_MOTION_DOT": -0.01563134, "MEAN_MOTION_DDOT": 0}, "tle": {"line1": "1 66868U 25281W   25351.25001157 -.01563134  00000+0 -10343-1 0  9995", "line2": "2 66868  43.0009  94.4983 0001623 267.1990 142.4465 15.77680941  1965"}}, "geometry": {"type": "Point", "coordinates": [-164.65548082361755, 42.25854051241069]}}, {"type": "Feature", "properties": {"norad_id": 66869, "name": "STARLINK-36092", "group": "last-30-days", "lat": 41.90765136033535, "lon": -161.8772968867657, "alt_km": 335.0735726398898, "timestamp": "2025-12-17T13:48:36.280955+00:00", "meta": {"OBJECT_NAME": "STARLINK-36092", "OBJECT_ID": "2025-281X", "EPOCH": "2025-12-17T06:00:00.999648", "MEAN_MOTION": 15.77580607, "ECCENTRICITY": 0.00016476, "INCLINATION": 43.0009, "RA_OF_ASC_NODE": 94.4927, "ARG_OF_PERICENTER": 274.4632, "MEAN_ANOMALY": 137.3959, "EPHEMERIS_TYPE": 0, "CLASSIFICATION_TYPE": "U", "NORAD_CAT_ID": 66869, "ELEMENT_SET_NO": 999, "REV_AT_EPOCH": 215, "BSTAR": -0.010475744, "MEAN_MOTION_DOT": -0.01574424, "MEAN_MOTION_DDOT": 0}, "tle": {"line1": "1 66869U 25281X   25351.25001157 -.01574424  00000+0 -10476-1 0  9997", "line2": "2 66869  43.0009  94.4927 0001647 274.4632 137.3959 15.77580607  2155"}}, "geometry": {"type": "Point", "coordinates": [-161.8772968867657, 41.90765136033535]}}, {"type": "Feature", "properties": {"norad_id": 66870, "name": "STARLINK-36114", "group": "last-30-days", "lat": 41.47044544010265, "lon": -159.0148564329157, "alt_km": 335.6768211090375, "timestamp": "2025-12-17T13:48:36.280965+00:00", "meta": {"OBJECT_NAME": "STARLINK-36114", "OBJECT_ID": "2025-281Y", "EPOCH": "2025-12-17T06:00:00.999648", "MEAN_MOTION": 15.7737328, "ECCENTRICITY": 0.0001764, "INCLINATION": 43.0005, "RA_OF_ASC_NODE": 94.4865, "ARG_OF_PERICENTER": 266.0907, "MEAN_ANOMALY": 148.1822, "EPHEMERIS_TYPE": 0, "CLASSIFICATION_TYPE": "U", "NORAD_CAT_ID": 66870, "ELEMENT_SET_NO": 999, "REV_AT_EPOCH": 202, "BSTAR": -0.010300096, "MEAN_MOTION_DOT": -0.01538781, "MEAN_MOTION_DDOT": 0}, "tle": {"line1": "1 66870U 25281Y   25351.25001157 -.01538781  00000+0 -10300-1 0  9991", "line2": "2 66870  43.0005  94.4865 0001764 266.0907 148.1822 15.77373280  2028"}}, "geometry": {"type": "Point", "coordinates": [-159.0148564329157, 41.47044544010265]}}, {"type": "Feature", "properties": {"norad_id": 66871, "name": "STARLINK-36095", "group": "last-30-days", "lat": 40.97084731908835, "lon": -156.23065968409696, "alt_km": 336.252442486355, "timestamp": "2025-12-17T13:48:36.280974+00:00", "meta": {"OBJECT_NAME": "STARLINK-36095", "OBJECT_ID": "2025-281Z", "EPOCH": "2025-12-17T06:00:00.999648", "MEAN_MOTION": 15.77159822, "ECCENTRICITY": 0.00016882, "INCLINATION": 43.0008, "RA_OF_ASC_NODE": 94.4805, "ARG_OF_PERICENTER": 270.5578, "MEAN_ANOMALY": 146.1034, "EPHEMERIS_TYPE": 0, "CLASSIFICATION_TYPE": "U", "NORAD_CAT_ID": 66871, "ELEMENT_SET_NO": 999, "REV_AT_EPOCH": 215, "BSTAR": -0.010155931, "MEAN_MOTION_DOT": -0.01507049, "MEAN_MOTION_DDOT": 0}, "tle": {"line1": "1 66871U 25281Z   25351.25001157 -.01507049  00000+0 -10156-1 0  9994", "line2": "2 66871  43.0008  94.4805 0001688 270.5578 146.1034 15.77159822  2156"}}, "geometry": {"type": "Point", "coordinates": [-156.23065968409696, 40.97084731908835]}}, {"type": "Feature", "properties": {"norad_id": 66872, "name": "STARLINK-36082", "group": "last-30-days", "lat": 40.44830700304878, "lon": -153.68993215205805, "alt_km": 336.4537474066601, "timestamp": "2025-12-17T13:48:36.280986+00:00", "meta": {"OBJECT_NAME": "STARLINK-36082", "OBJECT_ID": "2025-281AA", "EPOCH": "2025-12-17T06:00:00.999648", "MEAN_MOTION": 15.7708135, "ECCENTRICITY": 0.00015709, "INCLINATION": 43.0008, "RA_OF_ASC_NODE": 94.475, "ARG_OF_PERICENTER": 267.9299, "MEAN_ANOMALY": 150.8224, "EPHEMERIS_TYPE": 0, "CLASSIFICATION_TYPE": "U", "NORAD_CAT_ID": 66872, "ELEMENT_SET_NO": 999, "REV_AT_EPOCH": 202, "BSTAR": -0.010205617, "MEAN_MOTION_DOT": -0.01508743, "MEAN_MOTION_DDOT": 0}, "tle": {"line1": "1 66872U 25281AA  25351.25001157 -.01508743  00000+0 -10206-1 0  9993", "line2": "2 66872  43.0008  94.4750 0001570 267.9299 150.8224 15.77081350  2025"}}, "geometry": {"type": "Point", "coordinates": [-153.68993215205805, 40.44830700304878]}}, {"type": "Feature", "properties": {"norad_id": 66873, "name": "STARLINK-36128", "group": "last-30-days", "lat": 38.53449779467211, "lon": -146.24258468287405, "alt_km": 338.00918245295907, "timestamp": "2025-12-17T13:48:36.280995+00:00", "meta": {"OBJECT_NAME": "STARLINK-36128", "OBJECT_ID": "2025-281AB", "EPOCH": "2025-12-17T06:00:00.999648", "MEAN_MOTION": 15.76708895, "ECCENTRICITY": 0.00016283, "INCLINATION": 43.0004, "RA_OF_ASC_NODE": 94.4583, "ARG_OF_PERICENTER": 269.5363, "MEAN_ANOMALY": 155.7526, "EPHEMERIS_TYPE": 0, "CLASSIFICATION_TYPE": "U", "NORAD_CAT_ID": 66873, "ELEMENT_SET_NO": 999, "REV_AT_EPOCH": 215, "BSTAR": -0.011011169, "MEAN_MOTION_DOT": -0.01620154, "MEAN_MOTION_DDOT": 0}, "tle": {"line1": "1 66873U 25281AB  25351.25001157 -.01620154  00000+0 -11011-1 0  9990", "line2": "2 66873  43.0004  94.4583 0001628 269.5363 155.7526 15.76708895  2152"}}, "geometry": {"type": "Point", "coordinates": [-146.24258468287405, 38.53449779467211]}}, {"type": "Feature", "properties": {"norad_id": 66874, "name": "STARLINK-36129", "group": "last-30-days", "lat": 39.83844443481319, "lon": -151.05903258941217, "alt_km": 337.1600423281925, "timestamp": "2025-12-17T13:48:36.281007+00:00", "meta": {"OBJECT_NAME": "STARLINK-36129", "OBJECT_ID": "2025-281AC", "EPOCH": "2025-12-17T06:00:00.999648", "MEAN_MOTION": 15.76923405, "ECCENTRICITY": 0.00018937, "INCLINATION": 43.0005, "RA_OF_ASC_NODE": 94.4694, "ARG_OF_PERICENTER": 268.7887, "MEAN_ANOMALY": 152.245, "EPHEMERIS_TYPE": 0, "CLASSIFICATION_TYPE": "U", "NORAD_CAT_ID": 66874, "ELEMENT_SET_NO": 999, "REV_AT_EPOCH": 215, "BSTAR": -0.010144596, "MEAN_MOTION_DOT": -0.01491695, "MEAN_MOTION_DDOT": 0}, "tle": {"line1": "1 66874U 25281AC  25351.25001157 -.01491695  00000+0 -10145-1 0  9994", "line2": "2 66874  43.0005  94.4694 0001893 268.7887 152.2450 15.76923405  2157"}}, "geometry": {"type": "Point", "coordinates": [-151.05903258941217, 39.83844443481319]}}, {"type": "Feature", "properties": {"norad_id": 66875, "name": "STARLINK-36053", "group": "last-30-days", "lat": 37.79856893839457, "lon": -143.8667766214025, "alt_km": 338.36969338779363, "timestamp": "2025-12-17T13:48:36.281020+00:00", "meta": {"OBJECT_NAME": "STARLINK-36053", "OBJECT_ID": "2025-281AD", "EPOCH": "2025-12-17T06:00:00.999648", "MEAN_MOTION": 15.76664456, "ECCENTRICITY": 0.00012141, "INCLINATION": 43.0007, "RA_OF_ASC_NODE": 94.4526, "ARG_OF_PERICENTER": 279.8148, "MEAN_ANOMALY": 147.5975, "EPHEMERIS_TYPE": 0, "CLASSIFICATION_TYPE": "U", "NORAD_CAT_ID": 66875, "ELEMENT_SET_NO": 999, "REV_AT_EPOCH": 215, "BSTAR": -0.012130852, "MEAN_MOTION_DOT": -0.01761578, "MEAN_MOTION_DDOT": 0}, "tle": {"line1": "1 66875U 25281AD  25351.25001157 -.01761578  00000+0 -12131-1 0  9992", "line2": "2 66875  43.0007  94.4526 0001214 279.8148 147.5975 15.76664456  2151"}}, "geometry": {"type": "Point", "coordinates": [-143.8667766214025, 37.79856893839457]}}]}